[{"OBJECT_NAME":"STARLINK-35032","OBJECT_ID":"2025-191D","EPOCH":"2026-03-09T14:09:35.602560","MEAN_MOTION":15.05647823,"ECCENTRICITY":0.0001986,"INCLINATION":97.6027,"RA_OF_ASC_NODE":301.4143,"ARG_OF_PERICENTER":89.3469,"MEAN_ANOMALY":270.7985,"EPHEMERIS_TYPE":0,"CLASSIFICATION_TYPE":"U","NORAD_CAT_ID":65382,"ELEMENT_SET_NO":999,"REV_AT_EPOCH":3025,"BSTAR":0.0008083,"MEAN_MOTION_DOT":0.00011621,"MEAN_MOTION_DDOT":0},{"OBJECT_NAME":"COSMOS 1408 DEB","OBJECT_ID":"1982-092ADS","EPOCH":"2026-03-09T15:14:01.495392","MEAN_MOTION":15.34178134,"ECCENTRICITY":0.0122957,"INCLINATION":82.1939,"RA_OF_ASC_NODE":124.7493,"ARG_OF_PERICENTER":254.6382,"MEAN_ANOMALY":104.1246,"EPHEMERIS_TYPE":0,"CLASSIFICATION_TYPE":"U","NORAD_CAT_ID":50404,"ELEMENT_SET_NO":999,"REV_AT_EPOCH":22516,"BSTAR":0.0029669,"MEAN_MOTION_DOT":0.00127192,"MEAN_MOTION_DDOT":0}]
